{"spkid": "50780728", "covariance": {"epoch": "2459492.5", "labels": ["e", "q", "tp", "node", "peri", "i"], "data": [["2.350831095364729E-15", "-3.516142957573282E-15", "9.535319169426404E-13", "5.543369537501438E-14", "2.622167072681402E-13", "-3.078933456250704E-13"], ["-3.516142957573282E-15", "5.2699727097347E-15", "-1.419240916090863E-12", "-9.144748309696101E-14", "-3.814000621138168E-13", "4.394923661386118E-13"], ["9.535319169426404E-13", "-1.419240916090863E-12", "4.943854690969653E-10", "5.028798837797056E-11", "1.00716302944369E-10", "-1.174397401761849E-10"], ["5.543369537501438E-14", "-9.144748309696101E-14", "5.028798837797056E-11", "5.661015429838459E-11", "-4.302225638559152E-11", "-1.176987853864545E-11"], ["2.622167072681402E-13", "-3.814000621138168E-13", "1.00716302944369E-10", "-4.302225638559152E-11", "8.577872139961273E-11", "-3.258872981430681E-11"], ["-3.078933456250704E-13", "4.394923661386118E-13", "-1.174397401761849E-10", "-1.176987853864545E-11", "-3.258872981430681E-11", "3.109467300467889E-10"]], "elements": [{"units": null, "value": ".614375965636578", "title": "eccentricity", "sigma": 4.84853699105692e-08, "name": "e", "label": "e"}, {"sigma": 7.25945776882454e-08, "name": "q", "title": "perihelion distance", "value": ".6245537534339403", "units": "au", "label": "q"}, {"sigma": 2.22347806172439e-05, "name": "tp", "units": "TDB", "value": "2459542.793990702749", "title": "time of perihelion passage", "label": "tp"}, {"name": "om", "sigma": 7.52397197618283e-06, "units": "deg", "title": "longitude of the ascending node", "value": "145.609449103792", "label": "node"}, {"name": "w", "sigma": 9.26168026869923e-06, "title": "argument of perihelion", "value": "268.7550121238149", "units": "deg", "label": "peri"}, {"name": "i", "sigma": 1.76336816929077e-05, "title": "inclination", "value": "16.9030849939117", "units": "deg", "label": "i"}]}, "elements": [{"label": "e", "units": null, "title": "eccentricity", "value": ".6144097367152785", "name": "e", "sigma": "4.8688E-8"}, {"title": "semi-major axis", "value": "1.618835629019427", "units": "au", "name": "a", "sigma": "1.7491E-8", "label": "a"}, {"label": "q", "units": "au", "title": "perihelion distance", "value": ".6242072564082887", "sigma": "7.2877E-8", "name": "q"}, {"name": "i", "sigma": "1.7639E-5", "units": "deg", "title": "inclination; angle with respect to x-y ecliptic plane", "value": "16.90234188558119", "label": "i"}, {"title": "longitude of the ascending node", "value": "145.5606136280252", "units": "deg", "sigma": "7.5132E-6", "name": "om", "label": "node"}, {"title": "argument of perihelion", "value": "268.8207620935882", "units": "deg", "sigma": "9.2521E-6", "name": "w", "label": "peri"}, {"label": "M", "sigma": "2.3146E-5", "name": "ma", "title": "mean anomaly", "value": "73.1549874101031", "units": "deg"}, {"units": "TDB", "title": "time of perihelion passage", "value": "2461047.622350306156", "name": "tp", "sigma": "4.5981E-5", "label": "tp"}, {"value": "752.3199147209901", "title": "sidereal orbital period", "units": "d", "name": "per", "sigma": "1.2193E-5", "label": "period"}, {"label": "n", "name": "n", "sigma": "7.7554E-9", "title": "mean motion", "value": ".4785198330599978", "units": "deg/d"}, {"units": "au", "value": "2.613464001630566", "title": "aphelion distance", "sigma": "2.8238E-8", "name": "ad", "label": "Q"}], "epoch": "2461200.5"}